KUIPER-00061            
1 64521U 25134X   25286.00002315  .00013418  00000+0  16650-2 0  9993
2 64521  51.8991 161.1775 0006105 142.5018 128.9227 14.82860788  5271
KUIPER-00062            
1 64522U 25134Y   25285.97337560  .00003020  00000+0  38039-3 0  9996
2 64522  51.8954 168.3558 0008166 158.1638 201.9676 14.84670111 18173
KUIPER-00063            
1 64523U 25134Z   25284.71421010  .00004721  00000+0  65034-3 0  9996
2 64523  51.9021 176.7646 0004415  98.9645 261.1818 14.79767818 17948
KUIPER-00064            
1 64524U 25134AA  25285.98310961  .00006600  00000+0  90611-3 0  9996
2 64524  51.9007 168.3930 0005541 218.0084 142.0487 14.79353178 18174
KUIPER-00065            
1 64525U 25134AB  25285.95885268  .00006714  00000+0  90749-3 0  9999
2 64525  51.9010 173.4660 0011453 152.6178 207.5390 14.79966792 18084
KUIPER-00066            
1 64526U 25134AC  25285.92974692  .00023889  00000+0  11663-2 0  9996
2 64526  51.8877 160.6752 0004821 158.2433 201.8751 15.18142945 18271
KUIPER-00069            
1 64816U 25151A   25286.00002315  .00002715  00000+0  13070-3 0  9991
2 64816  51.8801 219.9099 0008506 117.7412 290.4072 15.22244418  5193
KUIPER-00070            
1 64817U 25151B   25286.00002315 -.00029303  00000+0 -38244-2 0  9995
2 64817  51.8982 238.6502 0010111 120.4046  63.4685 14.79968156  5179
